NUSAT-26 (M SOMERVILLE) 
1 52184U 22033AD  26188.87007737  .00012324  00000+0  28082-3 0  9998
2 52184  97.2336 267.7991 0006472 159.7284 200.4222 15.43049789107895
NUSAT-33 (ALBANIA-2)    
1 55047U 23001AQ  26188.83882793  .00006274  00000+0  23102-3 0  9999
2 55047  97.3059 249.3500 0005456 346.6026  13.5068 15.28178560195467
NUSAT-35 (WILLIAMINA)   
1 55048U 23001AR  26188.82405904  .00009360  00000+0  27135-3 0  9993
2 55048  97.1841 241.0530 0011357  35.9850 324.2157 15.35691115195574
NUSAT-39 (TIKVAH ALPER) 
1 56201U 23054Z   26188.87101090  .00018947  00000+0  36724-3 0  9992
2 56201  97.3095  98.8257 0003059   0.3259 359.7993 15.47735670181655
NUSAT-38 (MARIA AGNESI) 
1 56202U 23054AA  26188.81619576  .00021588  00000+0  37412-3 0  9990
2 56202  97.3034  99.4767 0010101 357.3204   2.7992 15.50860090181702
NUSAT-37 (JOAN CLARKE)  
1 56203U 23054AB  26188.84950714  .00034225  00000+0  43826-3 0  9994
2 56203  97.2607  96.3406 0006763 165.2053 194.9402 15.59097197181867
NUSAT-40 (C SHOEMAKER)  
1 56943U 23084M   26188.37826609  .00108475  00000+0  56159-3 0  9993
2 56943  97.4860 336.5542 0004469 200.5358 159.5731 15.80743307171993
NUSAT-41 (C PAYNE-G)    
1 56944U 23084N   26188.85795368  .00007714  00000+0  26779-3 0  9993
2 56944  97.5539 325.9046 0005948 240.3282 119.7366 15.30049558170948
NUSAT-42 (M WONENBURGER)
1 56966U 23084AL  26188.88022855  .00015773  00000+0  32166-3 0  9995
2 56966  97.5740 333.8704 0006306 169.6025 190.5355 15.46286995171279
NUSAT-44 (MARIA MITCHE*)
1 59122U 24043AA  26188.41984721  .00007552  00000+0  26194-3 0  9996
2 59122  97.5474 328.9933 0006858 157.8047 202.3491 15.30080066130366
NUSAT-50 (NANCY ROMAN)  
1 60493U 24149AB  26188.76952346  .00006491  00000+0  22449-3 0  9992
2 60493  97.3778 269.8859 0004737 119.2952 240.8763 15.30230523105271
NUSAT-48 (HENRIETTA LE*)
1 60498U 24149AG  26187.18887495  .00009400  00000+0  32448-3 0  9997
2 60498  97.3910 268.5926 0003967 187.0344 173.0842 15.30170218105041
NUSAT-49 (KLARA DAN VO*)
1 60500U 24149AJ  26188.73515149  .00005637  00000+0  19495-3 0  9992
2 60500  97.3772 269.8843 0001709 186.1553 173.9667 15.30298285105271
NUSAT-45 (UZMASAT-1)    
1 62640U 25009AH  26188.20105685  .00006008  00000+0  20765-3 0  9992
2 62640  97.3582 269.2219 0001050 206.7958 153.3229 15.30290389 81989
NUSAT-52                
1 66692U 25276AC  26188.75509116  .00003865  00000+0  18266-3 0  9997
2 66692  97.4197 261.9632 0001925 327.1642  32.9473 15.19989333 33543
NUSAT-51 (YVONNE BRILL) 
1 66740U 25276CC  26188.75882965  .00004365  00000+0  20284-3 0  9996
2 66740  97.4201 262.1035 0001563 287.0129  73.0935 15.20509361 33556
