{"fetched_at":"2026-07-08T07:04:08.166Z","source":"https://celestrak.org/NORAD/elements/gp.php?NAME=NUSAT&FORMAT=JSON","constellation":"satellogic","records":[{"OBJECT_NAME":"NUSAT-26 (M SOMERVILLE)","OBJECT_ID":"2022-033AD","EPOCH":"2026-07-07T20:52:54.684768","CLASSIFICATION_TYPE":"U","MEAN_MOTION":15.43049789,"ECCENTRICITY":0.0006472,"INCLINATION":97.2336,"RA_OF_ASC_NODE":267.7991,"ARG_OF_PERICENTER":159.7284,"MEAN_ANOMALY":200.4222,"EPHEMERIS_TYPE":0,"NORAD_CAT_ID":52184,"ELEMENT_SET_NO":999,"REV_AT_EPOCH":10789,"BSTAR":0.00028082,"MEAN_MOTION_DOT":0.00012324,"MEAN_MOTION_DDOT":0},{"OBJECT_NAME":"NUSAT-33 (ALBANIA-2)","OBJECT_ID":"2023-001AQ","EPOCH":"2026-07-07T20:07:54.733152","CLASSIFICATION_TYPE":"U","MEAN_MOTION":15.2817856,"ECCENTRICITY":0.0005456,"INCLINATION":97.3059,"RA_OF_ASC_NODE":249.35,"ARG_OF_PERICENTER":346.6026,"MEAN_ANOMALY":13.5068,"EPHEMERIS_TYPE":0,"NORAD_CAT_ID":55047,"ELEMENT_SET_NO":999,"REV_AT_EPOCH":19546,"BSTAR":0.00023102,"MEAN_MOTION_DOT":0.00006274,"MEAN_MOTION_DDOT":0},{"OBJECT_NAME":"NUSAT-35 (WILLIAMINA)","OBJECT_ID":"2023-001AR","EPOCH":"2026-07-07T19:46:38.701056","CLASSIFICATION_TYPE":"U","MEAN_MOTION":15.35691115,"ECCENTRICITY":0.0011357,"INCLINATION":97.1841,"RA_OF_ASC_NODE":241.053,"ARG_OF_PERICENTER":35.985,"MEAN_ANOMALY":324.2157,"EPHEMERIS_TYPE":0,"NORAD_CAT_ID":55048,"ELEMENT_SET_NO":999,"REV_AT_EPOCH":19557,"BSTAR":0.00027135,"MEAN_MOTION_DOT":0.0000936,"MEAN_MOTION_DDOT":0},{"OBJECT_NAME":"NUSAT-39 (TIKVAH ALPER)","OBJECT_ID":"2023-054Z","EPOCH":"2026-07-07T20:54:15.341760","CLASSIFICATION_TYPE":"U","MEAN_MOTION":15.4773567,"ECCENTRICITY":0.0003059,"INCLINATION":97.3095,"RA_OF_ASC_NODE":98.8257,"ARG_OF_PERICENTER":0.3259,"MEAN_ANOMALY":359.7993,"EPHEMERIS_TYPE":0,"NORAD_CAT_ID":56201,"ELEMENT_SET_NO":999,"REV_AT_EPOCH":18165,"BSTAR":0.00036724,"MEAN_MOTION_DOT":0.00018947,"MEAN_MOTION_DDOT":0},{"OBJECT_NAME":"NUSAT-38 (MARIA AGNESI)","OBJECT_ID":"2023-054AA","EPOCH":"2026-07-07T19:35:19.313664","CLASSIFICATION_TYPE":"U","MEAN_MOTION":15.5086009,"ECCENTRICITY":0.0010101,"INCLINATION":97.3034,"RA_OF_ASC_NODE":99.4767,"ARG_OF_PERICENTER":357.3204,"MEAN_ANOMALY":2.7992,"EPHEMERIS_TYPE":0,"NORAD_CAT_ID":56202,"ELEMENT_SET_NO":999,"REV_AT_EPOCH":18170,"BSTAR":0.00037412,"MEAN_MOTION_DOT":0.00021588,"MEAN_MOTION_DDOT":0},{"OBJECT_NAME":"NUSAT-37 (JOAN CLARKE)","OBJECT_ID":"2023-054AB","EPOCH":"2026-07-07T20:23:17.416896","CLASSIFICATION_TYPE":"U","MEAN_MOTION":15.59097197,"ECCENTRICITY":0.0006763,"INCLINATION":97.2607,"RA_OF_ASC_NODE":96.3406,"ARG_OF_PERICENTER":165.2053,"MEAN_ANOMALY":194.9402,"EPHEMERIS_TYPE":0,"NORAD_CAT_ID":56203,"ELEMENT_SET_NO":999,"REV_AT_EPOCH":18186,"BSTAR":0.00043826,"MEAN_MOTION_DOT":0.00034225,"MEAN_MOTION_DDOT":0},{"OBJECT_NAME":"NUSAT-40 (C SHOEMAKER)","OBJECT_ID":"2023-084M","EPOCH":"2026-07-07T09:04:42.190176","CLASSIFICATION_TYPE":"U","MEAN_MOTION":15.80743307,"ECCENTRICITY":0.00044694,"INCLINATION":97.486,"RA_OF_ASC_NODE":336.5542,"ARG_OF_PERICENTER":200.5358,"MEAN_ANOMALY":159.5731,"EPHEMERIS_TYPE":0,"NORAD_CAT_ID":56943,"ELEMENT_SET_NO":999,"REV_AT_EPOCH":17199,"BSTAR":0.00056158547,"MEAN_MOTION_DOT":0.00108475,"MEAN_MOTION_DDOT":0},{"OBJECT_NAME":"NUSAT-41 (C PAYNE-G)","OBJECT_ID":"2023-084N","EPOCH":"2026-07-07T20:35:27.197952","CLASSIFICATION_TYPE":"U","MEAN_MOTION":15.30049558,"ECCENTRICITY":0.0005948,"INCLINATION":97.5539,"RA_OF_ASC_NODE":325.9046,"ARG_OF_PERICENTER":240.3282,"MEAN_ANOMALY":119.7366,"EPHEMERIS_TYPE":0,"NORAD_CAT_ID":56944,"ELEMENT_SET_NO":999,"REV_AT_EPOCH":17094,"BSTAR":0.00026779,"MEAN_MOTION_DOT":0.00007714,"MEAN_MOTION_DDOT":0},{"OBJECT_NAME":"NUSAT-42 (M WONENBURGER)","OBJECT_ID":"2023-084AL","EPOCH":"2026-07-07T21:07:31.746720","CLASSIFICATION_TYPE":"U","MEAN_MOTION":15.46286995,"ECCENTRICITY":0.0006306,"INCLINATION":97.574,"RA_OF_ASC_NODE":333.8704,"ARG_OF_PERICENTER":169.6025,"MEAN_ANOMALY":190.5355,"EPHEMERIS_TYPE":0,"NORAD_CAT_ID":56966,"ELEMENT_SET_NO":999,"REV_AT_EPOCH":17127,"BSTAR":0.00032166,"MEAN_MOTION_DOT":0.00015773,"MEAN_MOTION_DDOT":0},{"OBJECT_NAME":"NUSAT-44 (MARIA MITCHELL)","OBJECT_ID":"2024-043AA","EPOCH":"2026-07-07T10:04:34.798944","CLASSIFICATION_TYPE":"U","MEAN_MOTION":15.30080066,"ECCENTRICITY":0.00068589,"INCLINATION":97.5474,"RA_OF_ASC_NODE":328.9933,"ARG_OF_PERICENTER":157.8047,"MEAN_ANOMALY":202.3491,"EPHEMERIS_TYPE":0,"NORAD_CAT_ID":59122,"ELEMENT_SET_NO":999,"REV_AT_EPOCH":13036,"BSTAR":0.00026193877,"MEAN_MOTION_DOT":0.00007552,"MEAN_MOTION_DDOT":0},{"OBJECT_NAME":"NUSAT-50 (NANCY ROMAN)","OBJECT_ID":"2024-149AB","EPOCH":"2026-07-07T18:28:06.826944","CLASSIFICATION_TYPE":"U","MEAN_MOTION":15.30230523,"ECCENTRICITY":0.0004737,"INCLINATION":97.3778,"RA_OF_ASC_NODE":269.8859,"ARG_OF_PERICENTER":119.2952,"MEAN_ANOMALY":240.8763,"EPHEMERIS_TYPE":0,"NORAD_CAT_ID":60493,"ELEMENT_SET_NO":999,"REV_AT_EPOCH":10527,"BSTAR":0.00022449,"MEAN_MOTION_DOT":0.00006491,"MEAN_MOTION_DDOT":0},{"OBJECT_NAME":"NUSAT-48 (HENRIETTA LEAVITT)","OBJECT_ID":"2024-149AG","EPOCH":"2026-07-06T04:31:58.795680","CLASSIFICATION_TYPE":"U","MEAN_MOTION":15.30170218,"ECCENTRICITY":0.00039678,"INCLINATION":97.391,"RA_OF_ASC_NODE":268.5926,"ARG_OF_PERICENTER":187.0344,"MEAN_ANOMALY":173.0842,"EPHEMERIS_TYPE":0,"NORAD_CAT_ID":60498,"ELEMENT_SET_NO":999,"REV_AT_EPOCH":10504,"BSTAR":0.00032447524,"MEAN_MOTION_DOT":0.000094,"MEAN_MOTION_DDOT":0},{"OBJECT_NAME":"NUSAT-49 (KLARA DAN VON NEUMANN)","OBJECT_ID":"2024-149AJ","EPOCH":"2026-07-07T17:38:37.088736","CLASSIFICATION_TYPE":"U","MEAN_MOTION":15.30298285,"ECCENTRICITY":0.0001709,"INCLINATION":97.3772,"RA_OF_ASC_NODE":269.8843,"ARG_OF_PERICENTER":186.1553,"MEAN_ANOMALY":173.9667,"EPHEMERIS_TYPE":0,"NORAD_CAT_ID":60500,"ELEMENT_SET_NO":999,"REV_AT_EPOCH":10527,"BSTAR":0.00019495,"MEAN_MOTION_DOT":0.00005637,"MEAN_MOTION_DDOT":0},{"OBJECT_NAME":"NUSAT-45 (UZMASAT-1)","OBJECT_ID":"2025-009AH","EPOCH":"2026-07-07T04:49:31.311840","CLASSIFICATION_TYPE":"U","MEAN_MOTION":15.30290389,"ECCENTRICITY":0.00010509,"INCLINATION":97.3582,"RA_OF_ASC_NODE":269.2219,"ARG_OF_PERICENTER":206.7958,"MEAN_ANOMALY":153.3229,"EPHEMERIS_TYPE":0,"NORAD_CAT_ID":62640,"ELEMENT_SET_NO":999,"REV_AT_EPOCH":8198,"BSTAR":0.00020764653,"MEAN_MOTION_DOT":0.00006008,"MEAN_MOTION_DDOT":0},{"OBJECT_NAME":"NUSAT-52","OBJECT_ID":"2025-276AC","EPOCH":"2026-07-07T18:07:19.876224","CLASSIFICATION_TYPE":"U","MEAN_MOTION":15.19989333,"ECCENTRICITY":0.0001925,"INCLINATION":97.4197,"RA_OF_ASC_NODE":261.9632,"ARG_OF_PERICENTER":327.1642,"MEAN_ANOMALY":32.9473,"EPHEMERIS_TYPE":0,"NORAD_CAT_ID":66692,"ELEMENT_SET_NO":999,"REV_AT_EPOCH":3354,"BSTAR":0.00018266,"MEAN_MOTION_DOT":0.00003865,"MEAN_MOTION_DDOT":0},{"OBJECT_NAME":"NUSAT-51 (YVONNE BRILL)","OBJECT_ID":"2025-276CC","EPOCH":"2026-07-07T18:12:42.881760","CLASSIFICATION_TYPE":"U","MEAN_MOTION":15.20509361,"ECCENTRICITY":0.0001563,"INCLINATION":97.4201,"RA_OF_ASC_NODE":262.1035,"ARG_OF_PERICENTER":287.0129,"MEAN_ANOMALY":73.0935,"EPHEMERIS_TYPE":0,"NORAD_CAT_ID":66740,"ELEMENT_SET_NO":999,"REV_AT_EPOCH":3355,"BSTAR":0.00020284,"MEAN_MOTION_DOT":0.00004365,"MEAN_MOTION_DDOT":0}]}
